<?xml version="1.0" encoding="UTF-8"?>
<kml xmlns="http://www.opengis.net/kml/2.2">
  <Document>
    <name>Карта без названия</name>
    <description/>
    <Style id="icon-1899-0288D1-nodesc-normal">
      <IconStyle>
        <color>ffd18802</color>
        <scale>1</scale>
        <Icon>
          <href>https://www.gstatic.com/mapspro/images/stock/503-wht-blank_maps.png</href>
        </Icon>
        <hotSpot x="32" xunits="pixels" y="64" yunits="insetPixels"/>
      </IconStyle>
      <LabelStyle>
        <scale>0</scale>
      </LabelStyle>
      <BalloonStyle>
        <text><![CDATA[<h3>$[name]</h3>]]></text>
      </BalloonStyle>
    </Style>
    <Style id="icon-1899-0288D1-nodesc-highlight">
      <IconStyle>
        <color>ffd18802</color>
        <scale>1</scale>
        <Icon>
          <href>https://www.gstatic.com/mapspro/images/stock/503-wht-blank_maps.png</href>
        </Icon>
        <hotSpot x="32" xunits="pixels" y="64" yunits="insetPixels"/>
      </IconStyle>
      <LabelStyle>
        <scale>1</scale>
      </LabelStyle>
      <BalloonStyle>
        <text><![CDATA[<h3>$[name]</h3>]]></text>
      </BalloonStyle>
    </Style>
    <StyleMap id="icon-1899-0288D1-nodesc">
      <Pair>
        <key>normal</key>
        <styleUrl>#icon-1899-0288D1-nodesc-normal</styleUrl>
      </Pair>
      <Pair>
        <key>highlight</key>
        <styleUrl>#icon-1899-0288D1-nodesc-highlight</styleUrl>
      </Pair>
    </StyleMap>
    <Style id="icon-1899-DB4436-nodesc-normal">
      <IconStyle>
        <color>ff3644db</color>
        <scale>1</scale>
        <Icon>
          <href>https://www.gstatic.com/mapspro/images/stock/503-wht-blank_maps.png</href>
        </Icon>
        <hotSpot x="32" xunits="pixels" y="64" yunits="insetPixels"/>
      </IconStyle>
      <LabelStyle>
        <scale>0</scale>
      </LabelStyle>
      <BalloonStyle>
        <text><![CDATA[<h3>$[name]</h3>]]></text>
      </BalloonStyle>
    </Style>
    <Style id="icon-1899-DB4436-nodesc-highlight">
      <IconStyle>
        <color>ff3644db</color>
        <scale>1</scale>
        <Icon>
          <href>https://www.gstatic.com/mapspro/images/stock/503-wht-blank_maps.png</href>
        </Icon>
        <hotSpot x="32" xunits="pixels" y="64" yunits="insetPixels"/>
      </IconStyle>
      <LabelStyle>
        <scale>1</scale>
      </LabelStyle>
      <BalloonStyle>
        <text><![CDATA[<h3>$[name]</h3>]]></text>
      </BalloonStyle>
    </Style>
    <StyleMap id="icon-1899-DB4436-nodesc">
      <Pair>
        <key>normal</key>
        <styleUrl>#icon-1899-DB4436-nodesc-normal</styleUrl>
      </Pair>
      <Pair>
        <key>highlight</key>
        <styleUrl>#icon-1899-DB4436-nodesc-highlight</styleUrl>
      </Pair>
    </StyleMap>
    <Style id="line-1267FF-5000-nodesc-normal">
      <LineStyle>
        <color>ffff6712</color>
        <width>5</width>
      </LineStyle>
      <BalloonStyle>
        <text><![CDATA[<h3>$[name]</h3>]]></text>
      </BalloonStyle>
    </Style>
    <Style id="line-1267FF-5000-nodesc-highlight">
      <LineStyle>
        <color>ffff6712</color>
        <width>7.5</width>
      </LineStyle>
      <BalloonStyle>
        <text><![CDATA[<h3>$[name]</h3>]]></text>
      </BalloonStyle>
    </Style>
    <StyleMap id="line-1267FF-5000-nodesc">
      <Pair>
        <key>normal</key>
        <styleUrl>#line-1267FF-5000-nodesc-normal</styleUrl>
      </Pair>
      <Pair>
        <key>highlight</key>
        <styleUrl>#line-1267FF-5000-nodesc-highlight</styleUrl>
      </Pair>
    </StyleMap>
    <Style id="poly-000000-1200-77-nodesc-normal">
      <LineStyle>
        <color>ff000000</color>
        <width>1.2</width>
      </LineStyle>
      <PolyStyle>
        <color>4d000000</color>
        <fill>1</fill>
        <outline>1</outline>
      </PolyStyle>
      <BalloonStyle>
        <text><![CDATA[<h3>$[name]</h3>]]></text>
      </BalloonStyle>
    </Style>
    <Style id="poly-000000-1200-77-nodesc-highlight">
      <LineStyle>
        <color>ff000000</color>
        <width>1.8</width>
      </LineStyle>
      <PolyStyle>
        <color>4d000000</color>
        <fill>1</fill>
        <outline>1</outline>
      </PolyStyle>
      <BalloonStyle>
        <text><![CDATA[<h3>$[name]</h3>]]></text>
      </BalloonStyle>
    </Style>
    <StyleMap id="poly-000000-1200-77-nodesc">
      <Pair>
        <key>normal</key>
        <styleUrl>#poly-000000-1200-77-nodesc-normal</styleUrl>
      </Pair>
      <Pair>
        <key>highlight</key>
        <styleUrl>#poly-000000-1200-77-nodesc-highlight</styleUrl>
      </Pair>
    </StyleMap>
    <Folder>
      <name>Kool</name>
      <Placemark>
        <name>Tallinn Industrial Education Center</name>
        <styleUrl>#icon-1899-0288D1-nodesc</styleUrl>
        <Point>
          <coordinates>
            24.7054502,59.4115524,0
          </coordinates>
        </Point>
      </Placemark>
      <Placemark>
        <name>Techno+TLN</name>
        <styleUrl>#poly-000000-1200-77-nodesc</styleUrl>
        <Polygon>
          <outerBoundaryIs>
            <LinearRing>
              <tessellate>1</tessellate>
              <coordinates>
                24.7051652,59.4106897,0
                24.7068603,59.4128189,0
                24.7037597,59.4135887,0
                24.7016247,59.4112521,0
                24.7051652,59.4106897,0
              </coordinates>
            </LinearRing>
          </outerBoundaryIs>
        </Polygon>
      </Placemark>
    </Folder>
    <Folder>
      <name>Kodu</name>
      <Placemark>
        <name>E-Logs OÜ</name>
        <styleUrl>#icon-1899-0288D1-nodesc</styleUrl>
        <Point>
          <coordinates>
            24.682983,59.4029392,0
          </coordinates>
        </Point>
      </Placemark>
      <Placemark>
        <name>Kodu</name>
        <styleUrl>#poly-000000-1200-77-nodesc</styleUrl>
        <Polygon>
          <outerBoundaryIs>
            <LinearRing>
              <tessellate>1</tessellate>
              <coordinates>
                24.6815992,59.4031113,0
                24.6816153,59.4029283,0
                24.6833641,59.4028437,0
                24.6833749,59.4030976,0
                24.6815992,59.4031113,0
              </coordinates>
            </LinearRing>
          </outerBoundaryIs>
        </Polygon>
      </Placemark>
    </Folder>
    <Folder>
      <name>Маршрут E-Logs OÜ – Tallinn Industrial Education Center</name>
      <Placemark>
        <name>Маршрут E-Logs OÜ – Tallinn Industrial Education Center</name>
        <styleUrl>#line-1267FF-5000-nodesc</styleUrl>
        <LineString>
          <tessellate>1</tessellate>
          <coordinates>
            24.68298,59.40283,0
            24.68279,59.40284,0
            24.68265,59.40284,0
            24.6818,59.40289,0
            24.6814,59.40292,0
            24.67997,59.40291,0
            24.67978,59.40292,0
            24.6797,59.40294,0
            24.67962,59.40296,0
            24.67951,59.40299,0
            24.67934,59.40303,0
            24.67965,59.40332,0
            24.67988,59.40355,0
            24.68021,59.40386,0
            24.68039,59.40403,0
            24.6811,59.40466,0
            24.68111,59.40473,0
            24.68119,59.40482,0
            24.68124,59.40488,0
            24.68144,59.40496,0
            24.68223,59.40572,0
            24.6826,59.40608,0
            24.68301,59.40647,0
            24.68312,59.40657,0
            24.68328,59.40672,0
            24.68344,59.40688,0
            24.68348,59.40692,0
            24.68401,59.40747,0
            24.68442,59.40784,0
            24.68453,59.40793,0
            24.68468,59.40807,0
            24.68472,59.4081,0
            24.6849,59.40828,0
            24.68498,59.40836,0
            24.68509,59.40844,0
            24.68512,59.40846,0
            24.68515,59.40848,0
            24.68518,59.40851,0
            24.68531,59.40864,0
            24.68544,59.40875,0
            24.68555,59.40886,0
            24.68567,59.40897,0
            24.6858,59.40909,0
            24.68591,59.4092,0
            24.68612,59.4094,0
            24.68613,59.40941,0
            24.68629,59.40957,0
            24.68648,59.40976,0
            24.68661,59.40987,0
            24.68677,59.41005,0
            24.68698,59.41026,0
            24.68723,59.41051,0
            24.68761,59.41088,0
            24.6877,59.41098,0
            24.68782,59.41117,0
            24.68795,59.41128,0
            24.68843,59.41177,0
            24.68886,59.41224,0
            24.68898,59.41236,0
            24.68912,59.4125,0
            24.68923,59.41263,0
            24.68941,59.41282,0
            24.6898,59.41321,0
            24.6903,59.41379,0
            24.69051,59.41402,0
            24.69055,59.41406,0
            24.69066,59.41419,0
            24.69071,59.41424,0
            24.69076,59.41431,0
            24.69087,59.41443,0
            24.69128,59.4149,0
            24.69225,59.41594,0
            24.69247,59.41611,0
            24.69261,59.41623,0
            24.69273,59.4162,0
            24.69298,59.41615,0
            24.69317,59.41611,0
            24.69322,59.41609,0
            24.69405,59.41591,0
            24.69451,59.41581,0
            24.6949,59.41572,0
            24.69567,59.41556,0
            24.69569,59.41555,0
            24.69658,59.41536,0
            24.69698,59.41528,0
            24.69715,59.41524,0
            24.69723,59.41522,0
            24.69731,59.4152,0
            24.69902,59.41482,0
            24.6991,59.4148,0
            24.69921,59.41478,0
            24.69989,59.41463,0
            24.70011,59.41459,0
            24.70019,59.41457,0
            24.70105,59.41437,0
            24.70113,59.41435,0
            24.70128,59.41432,0
            24.70136,59.4143,0
            24.70234,59.41407,0
            24.70252,59.41404,0
            24.70379,59.41375,0
            24.70456,59.41359,0
            24.70646,59.41315,0
            24.70658,59.41311,0
            24.70609,59.4126,0
            24.70537,59.41178,0
          </coordinates>
        </LineString>
      </Placemark>
      <Placemark>
        <name>E-Logs OÜ</name>
        <styleUrl>#icon-1899-DB4436-nodesc</styleUrl>
        <Point>
          <coordinates>
            24.6829787,59.4028335,0
          </coordinates>
        </Point>
      </Placemark>
      <Placemark>
        <name>Tallinn Industrial Education Center</name>
        <styleUrl>#icon-1899-DB4436-nodesc</styleUrl>
        <Point>
          <coordinates>
            24.7053735,59.4117824,0
          </coordinates>
        </Point>
      </Placemark>
    </Folder>
  </Document>
</kml>
